STARLINK-3812           
1 52346U 22045R   26200.58335648  .00008666  00000+0  39508-3 0  9998
2 52346  53.1608 326.4174 0002396  65.2518  59.6851 15.21428192  5799
STARLINK-3826           
1 52347U 22045S   26200.31531152  .00000382  00000+0  22956-4 0  9995
2 52347  53.1621 324.9111 0001153  81.1194 278.9939 15.33551709235697
STARLINK-3829           
1 52348U 22045T   26200.58335648  .00016230  00000+0  63694-3 0  9999
2 52348  53.1597 324.8005 0001510  55.4071 223.3473 15.25887826  5747
STARLINK-3819           
1 52349U 22045U   26200.58335648  .00031199  00000+0  94720-3 0  9995
2 52349  53.1607 324.0680 0000985  91.4262 142.1317 15.33843111  5336
STARLINK-3754           
1 52350U 22045V   26200.35308855  .00000381  00000+0  21827-4 0  9990
2 52350  53.1603 324.6751 0000849  75.0760 285.0337 15.35400516235704
STARLINK-3838           
1 52352U 22045X   26200.63546484 -.00000147  00000+0  88526-5 0  9996
2 52352  53.1607 326.5070 0001204  89.1451 270.9678 15.08834844235700
STARLINK-3807           
1 52353U 22045Y   26200.61449103  .00000384  00000+0  23010-4 0  9993
2 52353  53.1605 323.5023 0001315  88.5447 271.5706 15.33552504235746
STARLINK-3877           
1 52355U 22045AA  26200.63914665 -.00000152  00000+0  85181-5 0  9999
2 52355  53.1601 326.4904 0001332  90.5843 269.5301 15.08832125235702
STARLINK-3801           
1 52356U 22045AB  26199.73974954 -.00000008  00000+0  10897-4 0  9996
2 52356  53.1607 327.4775 0001121  66.1020 294.0100 15.34384943235617
STARLINK-3821           
1 52357U 22045AC  26200.35067527  .00000381  00000+0  21840-4 0  9990
2 52357  53.1616 324.8173 0001325  63.5846 296.5293 15.35401335235700
STARLINK-3837           
1 52358U 22045AD  26200.61338865  .00000290  00000+0  36326-4 0  9990
2 52358  53.1623 326.6081 0000718  93.6849 266.4225 15.08832817235703
STARLINK-3853           
1 52359U 22045AE  26200.58335648  .00012338  00000+0  54266-3 0  9991
2 52359  53.1588 326.3766 0000776 164.3565 141.9516 15.22264436  5792
STARLINK-3728           
1 52361U 22045AG  26200.58335648  .00021505  00000+0  67481-3 0  9993
2 52361  53.1595 323.9741 0001511  93.1597  49.1336 15.33002172  5845
STARLINK-3848           
1 52362U 22045AH  26200.45706362  .00000192  00000+0  17931-4 0  9990
2 52362  53.1602 312.9599 0001014  86.6114 273.5004 15.31703775235872
STARLINK-3830           
1 52363U 22045AJ  26200.58335648 -.00019398  00000+0 -54662-3 0  9991
2 52363  53.1587 324.2509 0001234  85.6782 293.0182 15.35398658  5790
STARLINK-3820           
1 52364U 22045AK  26200.58853707 -.00000410  00000+0 -76619-5 0  9996
2 52364  53.1599 316.6310 0001083  91.9792 268.1324 15.08834034235836
STARLINK-3874           
1 52365U 22045AL  26200.61063045 -.00000126  00000+0  10182-4 0  9994
2 52365  53.1618 316.6186 0001074  83.1004 277.0109 15.08832794235830
STARLINK-3808           
1 52366U 22045AM  26200.32726794  .00000068  00000+0  22358-4 0  9992
2 52366  53.1599 317.8927 0001157  90.0058 270.1066 15.08834388235795
STARLINK-3817           
1 52367U 22045AN  26200.59958613  .00000475  00000+0  47937-4 0  9991
2 52367  53.1610 316.6687 0001425  84.5374 275.5780 15.08835454235839
STARLINK-3834           
1 52368U 22045AP  26200.31622876 -.00000094  00000+0  12168-4 0  9997
2 52368  53.1610 317.9434 0001074  85.8011 274.3103 15.08832575235787
STARLINK-3841           
1 52369U 22045AQ  26200.59590808 -.00000378  00000+0 -56677-5 0  9997
2 52369  53.1601 316.6837 0001061  95.0269 265.0843 15.08833776235833
STARLINK-3827           
1 52370U 22045AR  26200.58951037 -.00000028  00000+0  16308-4 0  9990
2 52370  53.1607 316.7249 0001003  85.8467 274.2639 15.08832036235835
STARLINK-3798           
1 52371U 22045AS  26199.73856665  .00000228  00000+0  20219-4 0  9993
2 52371  53.1618 318.5964 0001226  73.1375 286.9760 15.29358543235729
STARLINK-3796           
1 52372U 22045AT  26200.59633433  .00002787  00000+0  90735-4 0  9999
2 52372  53.1605 314.0829 0000760  75.4131 284.6957 15.35410832235869
STARLINK-3550           
1 52373U 22045AU  26200.49556329  .00000189  00000+0  16720-4 0  9993
2 52373  53.1615 312.1772 0000941  85.1227 274.9883 15.34385592235898
STARLINK-3762           
1 52374U 22045AV  26200.47691579  .00000487  00000+0  24864-4 0  9998
2 52374  53.1612 314.1326 0001000  65.0403 295.0704 15.35404935235860
STARLINK-3785           
1 52375U 22045AW  26200.58335648 -.00009830  00000+0 -27118-3 0  9990
2 52375  53.1595 314.1167 0001276  73.5881 249.5256 15.35407225  5757
STARLINK-3805           
1 52377U 22045AY  26200.31993515  .00000198  00000+0  30534-4 0  9999
2 52377  53.1605 318.1470 0001119  88.1476 271.9644 15.08834229235786
STARLINK-3806           
1 52378U 22045AZ  26200.48918833  .00000866  00000+0  72479-4 0  9994
2 52378  53.1604 317.1651 0001117  88.3732 271.7388 15.08831303235829
STARLINK-3800           
1 52379U 22045BA  26200.58335648  .00021244  00000+0  85427-3 0  9992
2 52379  53.1610 315.7092 0001330  24.3514 281.1675 15.24884619  5695
